norad_id,name,regime,epoch,line1,line2,inclination,eccentricity,mean_motion,raan,arg_pericenter,mean_anomaly
26566,COSMOS 2374 (GLONASS),NSO,07343.57599100,1 26566U 00063C   07343.57599100 +.00000105 +00000-0 +10000-3 0 01090\,2 26566 064.5245 182.5123 0049307 215.6857 180.8846 02.13100391055670,64.5245,0.0049307,2.13100391,182.5123,215.6857,180.8846
26566,COSMOS 2374 (GLONASS),NSO,07344.20491140,1 26566U 00063C   07344.20491140  .00000102  00000-0  10000-3 0  1093\,2 26566 064.5245 182.4912 0049300 215.6749 303.3788 02.13100399 55684,64.5245,0.00493,2.13100399,182.4912,215.6749,303.3788
26566,COSMOS 2374 (GLONASS),NSO,07344.50762469,1 26566U 00063C   07344.50762469 +.00000101 +00000-0 +10000-3 0 01102\,2 26566 064.5245 182.4812 0049299 215.6746 175.6086 02.13100397055697,64.5245,0.0049299,2.13100397,182.4812,215.6746,175.6086
26566,COSMOS 2374 (GLONASS),NSO,07345.43359698,1 26566U 00063C   07345.43359698  .00000098  00000-0  10000-3 0  1106\,2 26566 064.5244 182.4503 0049306 215.6719 165.9806 02.13100398 55718,64.5244,0.0049306,2.13100398,182.4503,215.6719,165.9806
26566,COSMOS 2374 (GLONASS),NSO,07345.91657126,1 26566U 00063C   07345.91657126 +.00000097 +00000-0 +10000-3 0 01116\,2 26566 064.5245 182.4341 0049301 215.6834 176.4883 02.13100404055723,64.5245,0.0049301,2.13100404,182.4341,215.6834,176.4883
26566,COSMOS 2374 (GLONASS),NSO,07346.13202448,1 26566U 00063C   07346.13202448 +.00000097 +00000-0 +10000-3 0 01125\,2 26566 064.5245 182.4269 0049302 215.6710 341.7884 02.13100411055722,64.5245,0.0049302,2.13100411,182.4269,215.671,341.7884
26566,COSMOS 2374 (GLONASS),NSO,07346.99940050,1 26566U 00063C   07346.99940050  .00000098  00000-0  10000-3 0  1117\,2 26566 064.5245 182.3979 0049301 215.6777 287.1987 02.13100421 55741,64.5245,0.0049301,2.13100421,182.3979,215.6777,287.1987
26566,COSMOS 2374 (GLONASS),NSO,07347.06673278,1 26566U 00063C   07347.06673278 +.00000098 +00000-0 +10000-3 0 01122\,2 26566 064.5245 182.3957 0049305 215.6723 338.8590 02.13100423055748,64.5245,0.0049305,2.13100423,182.3957,215.6723,338.859
26566,COSMOS 2374 (GLONASS),NSO,07348.24898793,1 26566U 00063C   07348.24898793  .00000103  00000-0  10000-3 0  1121\,2 26566 064.5246 182.3563 0049318 215.6701 165.8408 02.13100423 55771,64.5246,0.0049318,2.13100423,182.3563,215.6701,165.8408
26566,COSMOS 2374 (GLONASS),NSO,07348.89047234,1 26566U 00063C   07348.89047234 +.00000107 +00000-0 +10000-3 0 01133\,2 26566 064.5245 182.3348 0049304 215.6577 297.9753 02.13100433055789,64.5245,0.0049304,2.13100433,182.3348,215.6577,297.9753
26566,COSMOS 2374 (GLONASS),NSO,07349.67366299,1 26566U 00063C   07349.67366299  .00000113  00000-0  10000-3 0  1132\,2 26566 064.5243 182.3086 0049311 215.6516 178.8146 02.13100437 55807,64.5243,0.0049311,2.13100437,182.3086,215.6516,178.8146
26566,COSMOS 2374 (GLONASS),NSO,07350.81251161,1 26566U 00063C   07350.81251161  .00000123  00000-0  10000-3 0  1143\,2 26566 064.5244 182.2705 0049332 215.6427 332.5038 02.13100446 55820,64.5244,0.0049332,2.13100446,182.2705,215.6427,332.5038
26566,COSMOS 2374 (GLONASS),NSO,07351.69141330,1 26566U 00063C   07351.69141330 +.00000130 +00000-0 +10000-3 0 01166\,2 26566 064.5245 182.2411 0049357 215.6311 286.7746 02.13100458055845,64.5245,0.0049357,2.13100458,182.2411,215.6311,286.7746
26566,COSMOS 2374 (GLONASS),NSO,07352.19226738,1 26566U 00063C   07352.19226738  .00000133  00000-0  10000-3 0  1150\,2 26566 064.5246 182.2244 0049360 215.6388 311.0025 02.13100461 55855,64.5246,0.004936,2.13100461,182.2244,215.6388,311.0025
26566,COSMOS 2374 (GLONASS),NSO,07352.49975878,1 26566U 00063C   07352.49975878 +.00000135 +00000-0 +10000-3 0 01162\,2 26566 064.5245 182.2142 0049355 215.6318 186.9045 02.13100457055865,64.5245,0.0049355,2.13100457,182.2142,215.6318,186.9045
26566,COSMOS 2374 (GLONASS),NSO,07353.46330041,1 26566U 00063C   07353.46330041  .00000137  00000-0  10000-3 0  1169\,2 26566 064.5248 182.1820 0049365 215.6317 206.0957 02.13100458 55889,64.5248,0.0049365,2.13100458,182.182,215.6317,206.0957
26566,COSMOS 2374 (GLONASS),NSO,07353.61207758,1 26566U 00063C   07353.61207758 +.00000137 +00000-0 +10000-3 0 01175\,2 26566 064.5248 182.1771 0049370 215.6417 320.2215 02.13100458055887,64.5248,0.004937,2.13100458,182.1771,215.6417,320.2215
26566,COSMOS 2374 (GLONASS),NSO,07354.09642933,1 26566U 00063C   07354.09642933 +.00000135 +00000-0 +10000-3 0 01185\,2 26566 064.5250 182.1609 0049376 215.6344 331.8044 02.13100458055894,64.525,0.0049376,2.13100458,182.1609,215.6344,331.8044
26566,COSMOS 2374 (GLONASS),NSO,07355.03767130,1 26566U 00063C   07355.03767130  .00000128  00000-0  10000-3 0  1178\,2 26566 064.5250 182.1294 0049380 215.6342 333.8883 02.13100457 55912,64.525,0.004938,2.13100457,182.1294,215.6342,333.8883
26566,COSMOS 2374 (GLONASS),NSO,07355.91938998,1 26566U 00063C   07355.91938998 +.00000117 +00000-0 +10000-3 0 01197\,2 26566 064.5251 182.1000 0049390 215.6052 290.3369 02.13100456055934,64.5251,0.004939,2.13100456,182.1,215.6052,290.3369
26566,COSMOS 2374 (GLONASS),NSO,07356.70231571,1 26566U 00063C   07356.70231571 +.00000105 +00000-0 +10000-3 0 01184\,2 26566 064.5251 182.0738 0049390 215.5984 170.9734 02.13100456055955,64.5251,0.004939,2.13100456,182.0738,215.5984,170.9734
26566,COSMOS 2374 (GLONASS),NSO,07357.82203127,1 26566U 00063C   07357.82203127  .00000087  00000-0  10000-3 0  1194\,2 26566 064.5252 182.0362 0049367 215.5684 310.0044 02.13100454 55971,64.5252,0.0049367,2.13100454,182.0362,215.5684,310.0044
26566,COSMOS 2374 (GLONASS),NSO,07358.77212331,1 26566U 00063C   07358.77212331 +.00000073 +00000-0 +10000-3 0 01225\,2 26566 064.5253 182.0044 0049376 215.5837 318.8613 02.13100440055994,64.5253,0.0049376,2.1310044,182.0044,215.5837,318.8613
26566,COSMOS 2374 (GLONASS),NSO,07359.03752887,1 26566U 00063C   07359.03752887  .00000070  00000-0  10000-3 0  1205\,2 26566 064.5253 181.9956 0049371 215.5773 162.4763 02.13100442 56002,64.5253,0.0049371,2.13100442,181.9956,215.5773,162.4763
26566,COSMOS 2374 (GLONASS),NSO,07359.64640909,1 26566U 00063C   07359.64640909 +.00000065 +00000-0 +10000-3 0 01229\,2 26566 064.5253 181.9754 0049401 215.5776 269.5839 02.13100423056018,64.5253,0.0049401,2.13100423,181.9754,215.5776,269.5839
26566,COSMOS 2374 (GLONASS),NSO,07360.22305573,1 26566U 00063C   07360.22305573  .00000062  00000-0  10000-3 0  1216\,2 26566 064.5253 181.9561 0049404 215.5783 351.9634 02.13100415 56026,64.5253,0.0049404,2.13100415,181.9561,215.5783,351.9634
26566,COSMOS 2374 (GLONASS),NSO,07360.61099308,1 26566U 00063C   07360.61099308 +.00000062 +00000-0 +10000-3 0 01226\,2 26566 064.5253 181.9432 0049406 215.5736 289.5780 02.13100411056038,64.5253,0.0049406,2.13100411,181.9432,215.5736,289.578
26566,COSMOS 2374 (GLONASS),NSO,07361.14550110,1 26566U 00063C   07361.14550110 +.00000063 +00000-0 +10000-3 0 01241\,2 26566 064.5253 181.9253 0049415 215.5672 339.6375 02.13100403056047,64.5253,0.0049415,2.13100403,181.9253,215.5672,339.6375
26566,COSMOS 2374 (GLONASS),NSO,07362.09058631,1 26566U 00063C   07362.09058631  .00000069  00000-0  10000-3 0  1221\,2 26566 064.5254 181.8937 0049418 215.5706 344.6658 02.13100396 56060,64.5254,0.0049418,2.13100396,181.8937,215.5706,344.6658
26566,COSMOS 2374 (GLONASS),NSO,07362.81603078,1 26566U 00063C   07362.81603078 +.00000076 +00000-0 +10000-3 0 01242\,2 26566 064.5254 181.8694 0049414 215.5683 181.2002 02.13100394056088,64.5254,0.0049414,2.13100394,181.8694,215.5683,181.2002
26566,COSMOS 2374 (GLONASS),NSO,07363.89686352,1 26566U 00063C   07363.89686352  .00000089  00000-0  10000-3 0  1230\,2 26566 064.5253 181.8333 0049405 215.5548 290.3856 02.13100390 56105,64.5253,0.0049405,2.1310039,181.8333,215.5548,290.3856
26566,COSMOS 2374 (GLONASS),NSO,07364.84537259,1 26566U 00063C   07364.84537259 +.00000100 +00000-0 +10000-3 0 01253\,2 26566 064.5255 181.8016 0049421 215.5622 298.0364 02.13100380056126,64.5255,0.0049421,2.1310038,181.8016,215.5622,298.0364
26566,COSMOS 2374 (GLONASS),NSO,07365.16066951,1 26566U 00063C   07365.16066951  .00000103  00000-0  10000-3 0  1247\,2 26566 064.5255 181.7911 0049424 215.5629 179.9190 02.13100379 56132,64.5255,0.0049424,2.13100379,181.7911,215.5629,179.919
26566,COSMOS 2374 (GLONASS),NSO,07365.55622074,1 26566U 00063C   07365.55622074 +.00000107 +00000-0 +10000-3 0 01259\,2 26566 064.5255 181.7778 0049424 215.5657 123.3672 02.13100373056136,64.5255,0.0049424,2.13100373,181.7778,215.5657,123.3672
26566,COSMOS 2374 (GLONASS),NSO,08001.72293076,1 26566U 00063C   08001.72293076  .00000114  00000-0  10000-3 0  1250\,2 26566 064.5259 181.7389 0049441 215.5652 298.4207 02.13100355 56163,64.5259,0.0049441,2.13100355,181.7389,215.5652,298.4207
26566,COSMOS 2374 (GLONASS),NSO,08002.92387296,1 26566U 00063C   08002.92387296 +.00000115 +00000-0 +10000-3 0 01274\,2 26566 064.5261 181.6987 0049459 215.5704 139.7305 02.13100351056180,64.5261,0.0049459,2.13100351,181.6987,215.5704,139.7305
26566,COSMOS 2374 (GLONASS),NSO,08004.36596355,1 26566U 00063C   08004.36596355  .00000109  00000-0  10000-3 0  1275\,2 26566 064.5260 181.6505 0049459 215.5669 166.0489 02.13100354 56229,64.526,0.0049459,2.13100354,181.6505,215.5669,166.0489
26566,COSMOS 2374 (GLONASS),NSO,08005.93176694,1 26566U 00063C   08005.93176694 +.00000098 +00000-0 +10000-3 0 01298\,2 26566 064.5260 181.5982 0049468 215.5682 287.2696 02.13100350056257,64.526,0.0049468,2.1310035,181.5982,215.5682,287.2696
26566,COSMOS 2374 (GLONASS),NSO,08006.67930457,1 26566U 00063C   08006.67930457 +.00000094 +00000-0 +10000-3 0 01303\,2 26566 064.5261 181.5731 0049472 215.5770 140.7423 02.13100355056260,64.5261,0.0049472,2.13100355,181.5731,215.577,140.7423
26566,COSMOS 2374 (GLONASS),NSO,08007.58062171,1 26566U 00063C   08007.58062171  .00000089  00000-0  10000-3 0  1295\,2 26566 064.5261 181.5431 0049475 215.5714 112.2028 02.13100358 56288,64.5261,0.0049475,2.13100358,181.5431,215.5714,112.2028
